NORAD_CAT_ID,OBJECT_NAME,OBJECT_TYPE,EPOCH,MEAN_MOTION,ECCENTRICITY,INCLINATION,RA_OF_ASC_NODE,ARG_OF_PERICENTER,MEAN_ANOMALY,BSTAR,MEAN_MOTION_DOT,MEAN_MOTION_DDOT,TLE_LINE0,TLE_LINE1,TLE_LINE2,SEMIMAJOR_AXIS,PERIOD,APOGEE,PERIGEE,DECAYED
53831.0,STARLINK-4649,PAYLOAD,2024-08-01 06:33:44,15.08849054,0.0001193,53.2171,52.1386,83.5708,276.542,0.00018569,2.669e-05,0.0,0 STARLINK-4649,1 53831U 22114P   24214.27343137  .00002669  00000-0  18569-3 0  9998,2 53831  53.2171  52.1386 0001193  83.5708 276.5420 15.08849054104455,6917.853,95.437,540.543,538.892,0.0
53831.0,STARLINK-4649,PAYLOAD,2024-08-01 22:27:35,15.0885591,0.0001165,53.2165,49.1608,86.9845,273.128,0.00044285,6.77e-05,0.0,0 STARLINK-4649,1 53831U 22114P   24214.93582919  .00006770  00000-0  44285-3 0  9995,2 53831  53.2165  49.1608 0001165  86.9845 273.1280 15.08855910104555,6917.832,95.437,540.503,538.891,0.0
53831.0,STARLINK-4649,PAYLOAD,2024-08-02 06:24:31,15.0885948,0.0001603,53.2181,47.6767,87.5875,272.5301,0.00055629,8.581e-05,0.0,0 STARLINK-4649,1 53831U 22114P   24215.26702763  .00008581  00000-0  55629-3 0  9999,2 53831  53.2181  47.6767 0001603  87.5875 272.5301 15.08859480104608,6917.821,95.436,540.795,538.577,0.0
53831.0,STARLINK-4649,PAYLOAD,2024-08-02 19:07:37,15.08828754,0.0001371,53.2163,45.2986,97.5798,262.535,-0.00018165,-3.177e-05,0.0,0 STARLINK-4649,1 53831U 22114P   24215.79695733 -.00003177  00000-0 -18165-3 0  9997,2 53831  53.2163  45.2986 0001371  97.5798 262.5350 15.08828754104144,6917.915,95.438,540.728,538.831,0.0
53831.0,STARLINK-4649,PAYLOAD,2024-08-02 22:18:23,15.08834573,0.0001576,53.2171,44.7015,101.0181,259.0988,4.5394e-06,-2.16e-06,0.0,0 STARLINK-4649,1 53831U 22114P   24215.92943805 -.00000216  00000-0  45394-5 0  9994,2 53831  53.2171  44.7015 0001576 101.0181 259.0988 15.08834573104700,6917.897,95.438,540.852,538.672,0.0
53831.0,STARLINK-4649,PAYLOAD,2024-08-03 06:15:19,15.08840824,0.0001626,53.2173,43.2164,98.4143,261.7033,0.00034344,5.182e-05,0.0,0 STARLINK-4649,1 53831U 22114P   24216.26063792  .00005182  00000-0  34344-3 0  9997,2 53831  53.2173  43.2164 0001626  98.4143 261.7033 15.08840824104217,6917.878,95.438,540.868,538.618,0.0
53831.0,STARLINK-4649,PAYLOAD,2024-08-03 22:09:10,15.08861054,0.0001545,53.2163,40.2453,88.4988,271.6181,0.0013074,0.00020592,0.0,0 STARLINK-4649,1 53831U 22114P   24216.92303809  .00020592  00000-0  13074-2 0  9994,2 53831  53.2163  40.2453 0001545  88.4988 271.6181 15.08861054104852,6917.816,95.436,540.75,538.612,0.0
53831.0,STARLINK-4649,PAYLOAD,2024-08-04 12:27:38,15.08863511,0.0001605,53.2175,37.5669,87.8412,272.2764,0.0010744,0.00016863,0.0,0 STARLINK-4649,1 53831U 22114P   24217.51919662  .00016863  00000-0  10744-2 0  9997,2 53831  53.2175  37.5669 0001605  87.8412 272.2764 15.08863511104400,6917.809,95.436,540.784,538.563,0.0
53831.0,STARLINK-4649,PAYLOAD,2024-08-04 18:49:11,15.08852607,0.0001409,53.2167,36.3792,92.7955,267.3198,0.00056139,8.661e-05,0.0,0 STARLINK-4649,1 53831U 22114P   24217.78415557  .00008661  00000-0  56139-3 0  9996,2 53831  53.2167  36.3792 0001409  92.7955 267.3198 15.08852607104448,6917.842,95.437,540.682,538.732,0.0
53831.0,STARLINK-4649,PAYLOAD,2024-08-05 18:39:57,15.08850245,0.0001427,53.2174,31.9194,96.2617,263.8538,0.00033386,5.031e-05,0.0,0 STARLINK-4649,1 53831U 22114P   24218.77775363  .00005031  00000-0  33386-3 0  9997,2 53831  53.2174  31.9194 0001427  96.2617 263.8538 15.08850245104598,6917.849,95.437,540.701,538.727,0.0
53831.0,STARLINK-4649,PAYLOAD,2024-08-06 04:12:16,15.08861698,0.0001498,53.2181,30.1349,96.242,263.8742,0.00044374,6.785e-05,0.0,0 STARLINK-4649,1 53831U 22114P   24219.17518625  .00006785  00000-0  44374-3 0  9994,2 53831  53.2181  30.1349 0001498  96.2420 263.8742 15.08861698104657,6917.814,95.436,540.715,538.643,0.0
53831.0,STARLINK-4649,PAYLOAD,2024-08-06 18:30:45,15.08830869,0.0001505,53.2177,27.4604,107.377,252.7387,-0.00020655,-3.573e-05,0.0,0 STARLINK-4649,1 53831U 22114P   24219.77135635 -.00003573  00000-0 -20655-3 0  9996,2 53831  53.2177  27.4604 0001505 107.3770 252.7387 15.08830869104744,6917.908,95.438,540.814,538.732,0.0
53831.0,STARLINK-4649,PAYLOAD,2024-08-07 18:21:32,15.08842068,0.0001378,53.2173,22.9992,105.3486,254.7659,0.00062245,9.633e-05,0.0,0 STARLINK-4649,1 53831U 22114P   24220.76495988  .00009633  00000-0  62245-3 0  9999,2 53831  53.2173  22.9992 0001378 105.3486 254.7659 15.08842068104894,6917.874,95.437,540.692,538.786,0.0
53831.0,STARLINK-4649,PAYLOAD,2024-08-08 10:15:23,15.08848387,0.0001227,53.2168,20.0235,93.765,266.3482,0.00048212,7.395e-05,0.0,0 STARLINK-4649,1 53831U 22114P   24221.42735889  .00007395  00000-0  48212-3 0  9991,2 53831  53.2168  20.0235 0001227  93.7650 266.3482 15.08848387105538,6917.855,95.437,540.569,538.871,0.0
53831.0,STARLINK-4649,PAYLOAD,2024-08-08 18:12:19,15.08848989,0.0001266,53.2164,18.5355,85.411,274.7027,0.00042439,6.474e-05,0.0,0 STARLINK-4649,1 53831U 22114P   24221.75855872  .00006474  00000-0  42439-3 0  9994,2 53831  53.2164  18.5355 0001266  85.4110 274.7027 15.08848989105043,6917.853,95.437,540.594,538.842,0.0
53831.0,STARLINK-4649,PAYLOAD,2024-08-09 10:06:11,15.08821938,0.0001431,53.2168,15.5619,95.3556,264.76,-0.0004925,-8.114e-05,0.0,0 STARLINK-4649,1 53831U 22114P   24222.42096356 -.00008114  00000-0 -49250-3 0  9996,2 53831  53.2168  15.5619 0001431  95.3556 264.7600 15.08821938105147,6917.936,95.439,540.791,538.811,0.0
53831.0,STARLINK-4649,PAYLOAD,2024-08-09 16:27:43,15.0882731,0.0001305,53.2155,14.3765,77.2187,282.8951,-0.00022853,-3.922e-05,0.0,0 STARLINK-4649,1 53831U 22114P   24222.68592535 -.00003922  00000-0 -22853-3 0  9996,2 53831  53.2155  14.3765 0001305  77.2187 282.8951 15.08827310105725,6917.919,95.438,540.687,538.881,0.0
53831.0,STARLINK-4649,PAYLOAD,2024-08-10 14:43:07,15.08847868,0.0001433,53.2153,10.2118,83.6394,276.4762,0.00045783,7.007e-05,0.0,0 STARLINK-4649,1 53831U 22114P   24223.61328439  .00007007  00000-0  45783-3 0  9993,2 53831  53.2153  10.2118 0001433  83.6394 276.4762 15.08847868105867,6917.856,95.437,540.713,538.73,0.0
53831.0,STARLINK-4649,PAYLOAD,2024-08-10 16:18:31,15.08846455,0.0001363,53.2159,9.9149,88.3959,271.7189,0.00072143,0.00011214,0.0,0 STARLINK-4649,1 53831U 22114P   24223.67952643  .00011214  00000-0  72143-3 0  9994,2 53831  53.2159   9.9149 0001363  88.3959 271.7189 15.08846455105337,6917.861,95.437,540.669,538.783,0.0
53831.0,STARLINK-4649,PAYLOAD,2024-08-11 19:20:03,15.0886332,0.0002218,53.218,4.86,87.6232,272.5015,0.00098618,0.00015452,0.0,0 STARLINK-4649,1 53831U 22114P   24224.80559829  .00015452  00000-0  98618-3 0  9992,2 53831  53.2180   4.8600 0002218  87.6232 272.5015 15.08863320105509,6917.809,95.436,541.208,538.14,0.0
53831.0,STARLINK-4649,PAYLOAD,2024-08-12 09:38:31,15.08853659,0.0001276,53.2179,2.1825,98.7954,261.3183,0.00046688,7.153e-05,0.0,0 STARLINK-4649,1 53831U 22114P   24225.40175462  .00007153  00000-0  46688-3 0  9995,2 53831  53.2179   2.1825 0001276  98.7954 261.3183 15.08853659105599,6917.839,95.437,540.586,538.821,0.0
53831.0,STARLINK-4649,PAYLOAD,2024-08-12 19:10:49,15.08867059,0.0002105,53.2159,0.4002,92.6209,267.5024,0.00082317,0.00012847,0.0,0 STARLINK-4649,1 53831U 22114P   24225.79918935  .00012847  00000-0  82317-3 0  9992,2 53831  53.2159   0.4002 0002105  92.6209 267.5024 15.08867059106191,6917.798,95.436,541.119,538.206,0.0
53831.0,STARLINK-4649,PAYLOAD,2024-08-13 01:32:21,15.08897587,0.000112,53.2181,359.2088,84.4715,275.6405,0.0018878,0.00029932,0.0,0 STARLINK-4649,1 53831U 22114P   24226.06413629  .00029932  00000-0  18878-2 0  9996,2 53831  53.2181 359.2088 0001120  84.4715 275.6405 15.08897587105698,6917.704,95.434,540.344,538.795,0.0
53831.0,STARLINK-4649,PAYLOAD,2024-08-13 09:29:18,15.08812325,0.0001749,53.2147,357.7236,93.1981,266.9211,-0.0013631,-0.000219,0.0,0 STARLINK-4649,1 53831U 22114P   24226.39535317 -.00021900  00000-0 -13631-2 0  9992,2 53831  53.2147 357.7236 0001749  93.1981 266.9211 15.08812325105748,6917.965,95.439,541.04,538.62,0.0
53831.0,STARLINK-4649,PAYLOAD,2024-08-14 01:23:11,15.08811595,0.0002115,53.2197,354.7503,112.4006,247.7211,0.00012483,1.698e-05,0.0,0 STARLINK-4649,1 53831U 22114P   24227.05776752  .00001698  00000-0  12483-3 0  9991,2 53831  53.2197 354.7503 0002115 112.4006 247.7211 15.08811595105844,6917.967,95.439,541.295,538.369,0.0
53831.0,STARLINK-4649,PAYLOAD,2024-08-14 12:30:53,15.08840374,0.0001365,53.2178,352.6679,123.8364,236.2759,0.0012288,0.00019323,0.0,0 STARLINK-4649,1 53831U 22114P   24227.52145002  .00019323  00000-0  12288-2 0  9997,2 53831  53.2178 352.6679 0001365 123.8364 236.2759 15.08840374105918,6917.879,95.438,540.689,538.8,0.0
53831.0,STARLINK-4649,PAYLOAD,2024-08-14 14:06:16,15.08843992,0.000157,53.2191,352.3723,122.0446,238.0699,0.0015007,0.00023679,0.0,0 STARLINK-4649,1 53831U 22114P   24227.58769026  .00023679  00000-0  15007-2 0  9992,2 53831  53.2191 352.3723 0001570 122.0446 238.0699 15.08843992106463,6917.868,95.437,540.819,538.647,0.0
53831.0,STARLINK-4649,PAYLOAD,2024-08-16 20:09:25,15.0888114,0.0001469,53.2162,342.2589,67.4467,292.6681,0.0017715,0.0002805,0.0,0 STARLINK-4649,1 53831U 22114P   24229.83987650  .00028050  00000-0  17715-2 0  9993,2 53831  53.2162 342.2589 0001469  67.4467 292.6681 15.08881140106263,6917.755,95.435,540.636,538.603,0.0
53831.0,STARLINK-4649,PAYLOAD,2024-08-16 21:44:48,15.08876293,0.0001301,53.2159,341.9609,116.4719,243.6407,0.0015221,0.00024043,0.0,0 STARLINK-4649,1 53831U 22114P   24229.90611171  .00024043  00000-0  15221-2 0  9991,2 53831  53.2159 341.9609 0001301 116.4719 243.6407 15.08876293106814,6917.769,95.435,540.534,538.734,0.0
53831.0,STARLINK-4649,PAYLOAD,2024-08-17 16:49:25,15.08861497,0.0001238,53.2176,338.3956,100.8347,259.2784,0.0016509,0.00026099,0.0,0 STARLINK-4649,1 53831U 22114P   24230.70098665  .00026099  00000-0  16509-2 0  9991,2 53831  53.2176 338.3956 0001238 100.8347 259.2784 15.08861497106395,6917.815,95.436,540.536,538.823,0.0
